{
    "links": {
        "self": "http://www.neowsapp.com/rest/v1/neo/3893450?api_key=iIulBulltgU6a56xZRHN4H3l9WmuAYTsLGpBGhQ2"
    },
    "id": "3893450",
    "neo_reference_id": "3893450",
    "name": "(2019 WX1)",
    "designation": "2019 WX1",
    "nasa_jpl_url": "http://ssd.jpl.nasa.gov/sbdb.cgi?sstr=3893450",
    "absolute_magnitude_h": 22.1,
    "estimated_diameter": {
        "kilometers": {
            "estimated_diameter_min": 0.1010543415,
            "estimated_diameter_max": 0.2259643771
        },
        "meters": {
            "estimated_diameter_min": 101.054341542,
            "estimated_diameter_max": 225.9643771094
        },
        "miles": {
            "estimated_diameter_min": 0.0627922373,
            "estimated_diameter_max": 0.140407711
        },
        "feet": {
            "estimated_diameter_min": 331.5431259047,
            "estimated_diameter_max": 741.3529669956
        }
    },
    "is_potentially_hazardous_asteroid": false,
    "close_approach_data": [
        {
            "close_approach_date": "2019-11-14",
            "close_approach_date_full": "2019-Nov-14 14:19",
            "epoch_date_close_approach": 1573741140000,
            "relative_velocity": {
                "kilometers_per_second": "23.793288462",
                "kilometers_per_hour": "85655.8384632338",
                "miles_per_hour": "53223.2069606688"
            },
            "miss_distance": {
                "astronomical": "0.1655221684",
                "lunar": "64.3881235076",
                "kilometers": "24761763.830421308",
                "miles": "15386246.5744897304"
            },
            "orbiting_body": "Earth"
        }
    ],
    "orbital_data": {
        "orbit_id": "4",
        "orbit_determination_date": "2019-12-01 04:52:10",
        "first_observation_date": "2019-11-23",
        "last_observation_date": "2019-11-30",
        "data_arc_in_days": 7,
        "observations_used": 25,
        "orbit_uncertainty": "9",
        "minimum_orbit_intersection": ".0163212",
        "jupiter_tisserand_invariant": "3.849",
        "epoch_osculation": "2458812.5",
        "eccentricity": ".6356492070396111",
        "semi_major_axis": "1.763848829330296",
        "inclination": "1.619487208025462",
        "ascending_node_longitude": "186.9726816290085",
        "orbital_period": "855.6387973882981",
        "perihelion_distance": ".6426597196287469",
        "perihelion_argument": "131.1979924801414",
        "aphelion_distance": "2.885037939031845",
        "perihelion_time": "2458755.060134092999",
        "mean_anomaly": "24.16715065941113",
        "mean_motion": ".4207382847748874",
        "equinox": "J2000",
        "orbit_class": {
            "orbit_class_type": "APO",
            "orbit_class_description": "Near-Earth asteroid orbits which cross the Earth’s orbit similar to that of 1862 Apollo",
            "orbit_class_range": "a (semi-major axis) > 1.0 AU; q (perihelion) < 1.017 AU"
        }
    },
    "is_sentry_object": false
}